ALOS-4 (DAICHI-4)       
1 60182U 24123A   24235.54502388  .00005433  00000+0  73369-3 0  9995
2 60182  97.9217 331.2541 0001541  99.2605 260.8781 14.79480399  7750
